[sun]
name = Sun
parent = none
radius = 696000.
halo = false
color = 1.,1.,0.8
tex_map = sun.png
tex_halo = NULL
tex_big_halo = halo.png
big_halo_size = 200
coord_func = sun_special
lightning = false
albedo = -1.
rot_periode = 654.61
rot_obliquity = 7.25
rot_equator_ascending_node = 196.13

[mercury]
name = Mercury
parent = Sun
radius = 2439.7
halo = true
color = 0.9,0.8,0.8
tex_map = mercury.png
tex_halo = star16x16.png
coord_func = mercury_special
lightning = true
albedo = 0.06
rot_periode = 1407.509405
rot_rotation_offset = 291.20
rot_obliquity = 7.01
#rot_equator_ascending_node = 48.42
sidereal_period = 87.97

[venus]
name = Venus
parent = Sun
radius = 6052.
halo = true
color = 1.,1.,0.8
tex_map = venus.png
tex_halo = star16x16.png
coord_func = venus_special
lightning = true
albedo = 0.77
rot_periode = 5832.479839
rot_rotation_offset = 137.45
rot_obliquity = -178.78
#rot_equator_ascending_node = 300.22
sidereal_period = 224.70

[earth]
name = Earth
parent = Sun
radius = 6378.1
halo = true
color = 0.7,0.8,1.2
tex_map = earthmap.png
tex_halo = star16x16.png
coord_func = earth_special
lightning = true
albedo = 0.3
rot_periode = 23.9344694
rot_rotation_offset = 280.5
rot_obliquity = -23.438855

[moon]
name = Moon
parent = Earth
radius = 1738.
halo = false
color = 1.,1.,1.
tex_map = lune.png
tex_halo = star16x16.png
coord_func = lunar_special
lightning = true
albedo = 0.12
rot_periode = 655.71986
rot_rotation_offset = 308
rot_obliquity = 23.45

[mars]
name = Mars
parent = Sun
radius = 3394.
halo = true
color = 1.2,0.7,0.7
tex_map = mars.png
tex_halo = star16x16.png
coord_func = mars_special
lightning = true
albedo = 0.150
rot_periode = 24.622962
rot_rotation_offset = 136.005
rot_obliquity = 26.72
rot_equator_ascending_node = 82.91
sidereal_period = 686.98

[phobos]
name = Phobos
parent = Mars
radius = 22.2
halo = true 
color = 1.,1.,1. 
tex_map = phoebos.png
tex_halo = star16x16.png
lightning = true 
albedo = 0.06 
rot_rotation_offset = 318.9 
rot_obliquity = 0.6 
#rot_equator_ascending_node = 186.6 
coord_func = phobos_special
#coord_func = ell_orbit 
#orbit_Epoch = 2451545.0 
#orbit_Period = 0.31891 
#orbit_SemiMajorAxis = 9380 
#orbit_Eccentricity = 0.0151 
#orbit_Inclination = 1.08 
#orbit_AscendingNode = 164.931 
#orbit_LongOfPericenter = 2.262 
#orbit_MeanLongitude = 317.724 

[deimos] 
name = Deimos 
parent = Mars
radius = 12.6 
halo = true 
color = 1.,1.,1. 
tex_map = deimos.png
tex_halo = star16x16.png
lightning = true 
albedo = 0.21 
rot_rotation_offset = 318.9 
rot_obliquity = 0.6 
#rot_equator_ascending_node = 186.6 
coord_func = deimos_special
#coord_func = ell_orbit 
#orbit_Epoch = 2451545.0 
#orbit_Period = 15.945421 
#orbit_SemiMajorAxis = 23460 
#orbit_Eccentricity = 0.0002 
#orbit_Inclination = 1.793 
#orbit_AscendingNode = 339.600 
#orbit_LongOfPericenter = 0 
#orbit_MeanLongitude = 120 

[jupiter]
name = Jupiter
parent = Sun
radius = 71398.
halo = true
color = 0.8,0.9,1.0
tex_map = jupiter.png
tex_halo = star16x16.png
coord_func = jupiter_special
lightning = true
albedo = 0.51
rot_periode = 9.927953
rot_rotation_offset = 151
rot_obliquity = 2.222461
rot_equator_ascending_node = -22.203
sidereal_period = 4331.87

[io]
name = Io
parent = Jupiter
radius = 1821.
halo = true
color = 1.,.8,.7
tex_map = io.png
tex_halo = star16x16.png
lightning = true
albedo = 0.61
rot_rotation_offset = 220.8
rot_obliquity = 0.0
coord_func = io_special

[europa]
name = Europa
parent = Jupiter
radius = 1565.
halo = true
color = 1.,1.,1.
tex_map = europa.png
tex_halo = star16x16.png
lightning = true
albedo = 0.64
rot_obliquity = 0.0
rot_rotation_offset = 56.2
coord_func = europa_special

[ganymede]
name = Ganymede
parent = Jupiter
radius = 2634.
halo = true
color = 1.,1.,1.
tex_map = ganymede.png
tex_halo = star16x16.png
lightning = true
albedo = 0.42
rot_rotation_offset = 262.1
rot_obliquity = 0.1
#rot_equator_ascending_node = 161.6
coord_func = ganymede_special

[callisto]
name = Callisto
parent = Jupiter
radius = 2403.
halo = true
color = 1.,1.,1.
tex_map = callisto.png
tex_halo = star16x16.png
lightning = true
albedo = 0.20
rot_rotation_offset = 120.1
rot_obliquity = 0.4
#rot_equator_ascending_node = 160.6
coord_func = calisto_special

[saturn]
name = Saturn
parent = Sun
radius = 60330.
halo = true
color = 1.,1.,0.85
tex_map = saturn.png
tex_halo = star16x16.png
coord_func = saturn_special
lightning = true
rings = true
ring_size = 160000.
tex_ring = saturn_rings.png
albedo = 0.50
rot_periode = 10.65622
rot_rotation_offset = 358.922
rot_obliquity = 28.049
rot_equator_ascending_node = 169.5291
lightning = true
sidereal_period = 10760


[mimas]
name = Mimas
parent = Saturn
radius = 198.6
halo = true
color = 0.75,0.63,0.58
tex_map = mimas.png
tex_halo = star16x16.png
lightning = true
albedo = 0.5
rot_rotation_offset = 190.7
rot_obliquity = 1.5
#rot_equator_ascending_node = 137.8
coord_func = mimas_special

[enceladus]
name = Enceladus
parent = Saturn
radius = 249.4
halo = true
color = 1.,0.9,0.75
tex_map = enceladus.png
tex_halo = star16x16.png
lightning = true
albedo = 0.99
rot_rotation_offset = 322.9
rot_obliquity = 0.0
coord_func = enceladus_special

[tethys]
name = Tethys
parent = Saturn
radius = 529.9
halo = true
color = 1.,0.9,0.75
tex_map = tethys.png
tex_halo = star16x16.png
lightning = true
albedo = 0.9
rot_rotation_offset = 330.6
rot_obliquity = 0.0
coord_func = tethys_special

[dione]
name = Dione
parent = Saturn
radius = 559.
halo = true
color = 1.,0.9,0.75
tex_map = dione.png
tex_halo = star16x16.png
lightning = true
albedo = 0.7
rot_rotation_offset = 317.1
rot_obliquity = 0.0
coord_func = dione_special

[rhea]
name = Rhea
parent = Saturn
radius = 764.
halo = true
color = 1.,0.9,0.75
tex_map = rhea.png
tex_halo = star16x16.png
lightning = true
albedo = 0.7
rot_rotation_offset = 195.0
rot_obliquity = 0.0
coord_func = rhea_special

[titan]
name = Titan
parent = Saturn
radius = 2575.
halo = true
color = 1.,0.9,0.75
tex_map = titan.png
tex_halo = star16x16.png
lightning = true
albedo = 0.21
rot_rotation_offset = 318.9
rot_obliquity = 0.6
#rot_equator_ascending_node = 186.6
coord_func = titan_special

[hyperion]
name = Hyperion
parent = Saturn
radius = 171.
halo = true
color = 1.,0.9,0.75
tex_map = hyperion.png
tex_halo = star16x16.png
lightning = true
albedo = 0.3
rot_rotation_offset = 318.9
rot_obliquity = 61.
#rot_equator_ascending_node = 145
#RotationPeriod = 120
#PrecessionRate = 51.43
coord_func = hyperion_special

[iapetus]
name = Iapetus
parent = Saturn
radius = 718.
halo = true
color = 1.,0.9,0.75
tex_map = iapetus.png
tex_halo = star16x16.png
lightning = true
albedo = 0.2
rot_rotation_offset = 14.9
rot_obliquity = 15.5
#rot_equator_ascending_node = 213.7
coord_func = iapetus_special


[uranus]
name = Uranus
parent = Sun
radius = 26200.
halo = true
color = 0.75,0.95,1.
tex_map = uranus.png
tex_halo = star16x16.png
coord_func = uranus_special
lightning = true
albedo = 0.66
rot_periode = 17.24
rot_rotation_offset = 331.18
rot_obliquity = -97.81
#rot_equator_ascending_node = 167.76
sidereal_period = 30685

[miranda]
name = Miranda
parent = Uranus
radius = 235.8
halo = true
color = 1.,0.9,0.75
tex_map = miranda.png
tex_halo = star16x16.png
lightning = true
albedo = 0.32
rot_rotation_offset = 195.0
rot_obliquity = 0.0
coord_func = miranda_special

[ariel]
name = Ariel
parent = Uranus
radius = 578.9
halo = true
color = 1.,0.9,0.75
tex_map = ariel.png
tex_halo = star16x16.png
lightning = true
albedo = 0.39
rot_rotation_offset = 195.0
rot_obliquity = 0.0
coord_func = ariel_special

[umbriel]
name = Umbriel
parent = Uranus
radius = 584.7
halo = true
color = 1.,0.9,0.75
tex_map = umbriel.png
tex_halo = star16x16.png
lightning = true
albedo = 0.21
rot_rotation_offset = 195.0
rot_obliquity = 0.0
coord_func = umbriel_special

[titania]
name = Titania
parent = Uranus
radius = 788.9
halo = true
color = 1.,0.9,0.75
tex_map = titania.png
tex_halo = star16x16.png
lightning = true
albedo = 0.27
rot_rotation_offset = 195.0
rot_obliquity = 0.0
coord_func = titania_special

[oberon]
name = Oberon
parent = Uranus
radius = 761.4
halo = true
color = 1.,0.9,0.75
tex_map = oberon.png
tex_halo = star16x16.png
lightning = true
albedo = 0.23
rot_rotation_offset = 195.0
rot_obliquity = 0.0
coord_func = oberon_special


[neptune]
name = Neptune
parent = Sun
radius = 25225.
halo = true
color = 0.75,0.75,1.
tex_map = neptune.png
tex_halo = star16x16.png
coord_func = neptune_special
lightning = true
albedo = 0.62
rot_periode = 16.11
rot_rotation_offset = 228.65
rot_obliquity = 28.03
rot_equator_ascending_node = 180
#49.235
sidereal_period = 60189

[pluto]
name = Pluto
parent = Sun
radius = 1137.
halo = true
color = 1.,1.,1.
tex_map = lune.png
tex_halo = star16x16.png
coord_func = pluto_special
lightning = true
albedo = 0.55
rot_periode = 153.293904
rot_rotation_offset = 320.75
rot_obliquity = -115.60
#rot_equator_ascending_node = 228.34
sidereal_period = 90797

[charon]
name = Charon
parent = Pluto
radius = 586.
halo = true
color = 1.,1.,1.
tex_map = lune.png
tex_halo = star16x16.png
lightning = true
albedo = 0.35
rot_rotation_offset = 213.3
rot_obliquity = 1.0
#rot_equator_ascending_node = 287.6
coord_func = ell_orbit
orbit_Epoch = 2451545.0
orbit_Period = 6.387246
orbit_SemiMajorAxis = 19636
orbit_Eccentricity = 0.0002
orbit_Inclination = 0.0048
orbit_AscendingNode = 93.5582
orbit_LongOfPericenter = 227.3188
orbit_MeanLongitude = 320.7583
